[{"OBJECT_NAME":"COSMOS 2576","OBJECT_ID":"2024-092A","EPOCH":"2026-03-09T19:49:29.705664","MEAN_MOTION":15.27760963,"ECCENTRICITY":0.0005946,"INCLINATION":97.4253,"RA_OF_ASC_NODE":186.0053,"ARG_OF_PERICENTER":159.7731,"MEAN_ANOMALY":200.3745,"EPHEMERIS_TYPE":0,"CLASSIFICATION_TYPE":"U","NORAD_CAT_ID":59773,"ELEMENT_SET_NO":999,"REV_AT_EPOCH":10127,"BSTAR":0.00056283,"MEAN_MOTION_DOT":0.00015211,"MEAN_MOTION_DDOT":0},{"OBJECT_NAME":"STARLINK-35411","OBJECT_ID":"2025-268D","EPOCH":"2026-03-09T04:41:57.674688","MEAN_MOTION":15.27576721,"ECCENTRICITY":0.00011588,"INCLINATION":42.9996,"RA_OF_ASC_NODE":349.8996,"ARG_OF_PERICENTER":286.5987,"MEAN_ANOMALY":73.4737,"EPHEMERIS_TYPE":0,"CLASSIFICATION_TYPE":"U","NORAD_CAT_ID":66560,"ELEMENT_SET_NO":999,"REV_AT_EPOCH":1788,"BSTAR":0.001097542,"MEAN_MOTION_DOT":0.0003006,"MEAN_MOTION_DDOT":0}]
